{"fetched_at":"2026-07-15T17:47:07.582Z","source":"https://celestrak.org/NORAD/elements/gp.php?NAME=FIREFLY&FORMAT=JSON","constellation":"pixxel","records":[{"OBJECT_NAME":"FIREFLY-1","OBJECT_ID":"2025-009CW","EPOCH":"2026-07-15T04:19:26.020128","CLASSIFICATION_TYPE":"U","MEAN_MOTION":14.92741312,"ECCENTRICITY":0.0002587,"INCLINATION":97.7061,"RA_OF_ASC_NODE":273.7293,"ARG_OF_PERICENTER":223.382,"MEAN_ANOMALY":136.7197,"EPHEMERIS_TYPE":0,"NORAD_CAT_ID":62701,"ELEMENT_SET_NO":999,"REV_AT_EPOCH":8149,"BSTAR":0.000064043,"MEAN_MOTION_DOT":0.00000606,"MEAN_MOTION_DDOT":0},{"OBJECT_NAME":"FIREFLY-2","OBJECT_ID":"2025-009CZ","EPOCH":"2026-07-15T03:47:37.157280","CLASSIFICATION_TYPE":"U","MEAN_MOTION":14.92735427,"ECCENTRICITY":0.0006391,"INCLINATION":97.7019,"RA_OF_ASC_NODE":273.4775,"ARG_OF_PERICENTER":3.2155,"MEAN_ANOMALY":356.9104,"EPHEMERIS_TYPE":0,"NORAD_CAT_ID":62704,"ELEMENT_SET_NO":999,"REV_AT_EPOCH":8149,"BSTAR":0.000080106,"MEAN_MOTION_DOT":0.00000772,"MEAN_MOTION_DDOT":0},{"OBJECT_NAME":"FIREFLY-3","OBJECT_ID":"2025-009DF","EPOCH":"2026-07-15T04:52:37.656768","CLASSIFICATION_TYPE":"U","MEAN_MOTION":14.92800036,"ECCENTRICITY":0.0004758,"INCLINATION":97.7052,"RA_OF_ASC_NODE":273.7817,"ARG_OF_PERICENTER":73.3188,"MEAN_ANOMALY":286.8554,"EPHEMERIS_TYPE":0,"NORAD_CAT_ID":62710,"ELEMENT_SET_NO":999,"REV_AT_EPOCH":8151,"BSTAR":0.000040563,"MEAN_MOTION_DOT":0.00000364,"MEAN_MOTION_DDOT":0}]}
