FIREFLY-1               
1 62701U 25009CW  26196.18016227  .00000606  00000+0  64043-4 0  9995
2 62701  97.7061 273.7293 0002587 223.3820 136.7197 14.92741312 81493
FIREFLY-2               
1 62704U 25009CZ  26196.15806895  .00000772  00000+0  80106-4 0  9995
2 62704  97.7019 273.4775 0006391   3.2155 356.9104 14.92735427 81498
FIREFLY-3               
1 62710U 25009DF  26196.20321362  .00000364  00000+0  40563-4 0  9999
2 62710  97.7052 273.7817 0004758  73.3188 286.8554 14.92800036 81513
